start=new Date('2022-08-13T00:00:00.000Z').valueOf();
sats=[{"RA_OF_ASC_NODE":"80.0024","REV_AT_EPOCH":"7184","COUNTRY_CODE":"US","MEAN_MOTION":"15.06391366","NORAD_CAT_ID":"48395","EPHEMERIS_TYPE":"0","RCS_SIZE":"LARGE","EPOCH":"2022-08-12T19:54:31.250304","ECCENTRICITY":"0.00016040","CLASSIFICATION_TYPE":"U","SITE":"AFETR","PERIOD":"95.593","SEMIMAJOR_AXIS":"6925.375","CENTER_NAME":"EARTH","GP_ID":"210105270","TLE_LINE2":"2 48395  53.0570  80.0024 0001604  91.6650 268.4523 15.06391366 71843","LAUNCH_DATE":"2021-05-04","MEAN_MOTION_DOT":"0.00001112","REF_FRAME":"TEME","TLE_LINE1":"1 48395U 21038AU  22224.82952836  .00001112  00000-0  93561-4 0  9991","ELEMENT_SET_NO":"999","MEAN_ANOMALY":"268.4523","OBJECT_NAME":"STARLINK-2574","FILE":"3535519","TIME_SYSTEM":"UTC","BSTAR":"0.00009356100000","MEAN_ELEMENT_THEORY":"SGP4","ARG_OF_PERICENTER":"91.6650","OBJECT_TYPE":"PAYLOAD","APOAPSIS":"548.351","OBJECT_ID":"2021-038AU","DECAY_DATE":null,"INCLINATION":"53.0570","MEAN_MOTION_DDOT":"0.0000000000000","PERIAPSIS":"546.129"},{"MEAN_MOTION_DOT":"0.00005702","LAUNCH_DATE":"2021-05-04","GP_ID":"210105520","TLE_LINE2":"2 48396  53.0532  79.5963 0001387  80.6208 279.4938 15.06398942 71841","ELEMENT_SET_NO":"999","TLE_LINE1":"1 48396U 21038AV  22224.78154612  .00005702  00000-0  40141-3 0  9997","REF_FRAME":"TEME","PERIOD":"95.592","CENTER_NAME":"EARTH","SEMIMAJOR_AXIS":"6925.352","SITE":"AFETR","CLASSIFICATION_TYPE":"U","ECCENTRICITY":"0.00013870","COUNTRY_CODE":"US","RA_OF_ASC_NODE":"79.5963","REV_AT_EPOCH":"7184","RCS_SIZE":"LARGE","EPHEMERIS_TYPE":"0","EPOCH":"2022-08-12T18:45:25.584768","NORAD_CAT_ID":"48396","MEAN_MOTION":"15.06398942","PERIAPSIS":"546.256","MEAN_MOTION_DDOT":"0.0000000000000","DECAY_DATE":null,"OBJECT_ID":"2021-038AV","APOAPSIS":"548.177","INCLINATION":"53.0532","BSTAR":"0.00040141000000","TIME_SYSTEM":"UTC","OBJECT_TYPE":"PAYLOAD","ARG_OF_PERICENTER":"80.6208","MEAN_ELEMENT_THEORY":"SGP4","OBJECT_NAME":"STARLINK-2575","MEAN_ANOMALY":"279.4938","FILE":"3535519"},{"PERIOD":"95.592","SEMIMAJOR_AXIS":"6925.324","CENTER_NAME":"EARTH","LAUNCH_DATE":"2021-05-04","MEAN_MOTION_DOT":"0.00005589","GP_ID":"210105771","TLE_LINE2":"2 48397  53.0547  79.6089 0001362  93.6262 266.4883 15.06407940 71849","REF_FRAME":"TEME","ELEMENT_SET_NO":"999","TLE_LINE1":"1 48397U 21038AW  22224.77784718  .00005589  00000-0  39370-3 0  9998","COUNTRY_CODE":"US","RA_OF_ASC_NODE":"79.6089","REV_AT_EPOCH":"7184","NORAD_CAT_ID":"48397","MEAN_MOTION":"15.06407940","RCS_SIZE":"LARGE","EPOCH":"2022-08-12T18:40:05.996352","EPHEMERIS_TYPE":"0","ECCENTRICITY":"0.00013620","CLASSIFICATION_TYPE":"U","SITE":"AFETR","APOAPSIS":"548.132","DECAY_DATE":null,"OBJECT_ID":"2021-038AW","INCLINATION":"53.0547","MEAN_MOTION_DDOT":"0.0000000000000","PERIAPSIS":"546.246","MEAN_ANOMALY":"266.4883","OBJECT_NAME":"STARLINK-2590","FILE":"3535519","BSTAR":"0.00039370000000","TIME_SYSTEM":"UTC","OBJECT_TYPE":"PAYLOAD","MEAN_ELEMENT_THEORY":"SGP4","ARG_OF_PERICENTER":"93.6262"},{"SITE":"AFETR","CLASSIFICATION_TYPE":"U","ECCENTRICITY":"0.00015530","EPHEMERIS_TYPE":"0","RCS_SIZE":"LARGE","EPOCH":"2022-08-12T20:10:20.318880","MEAN_MOTION":"15.06405434","NORAD_CAT_ID":"48398","RA_OF_ASC_NODE":"79.3175","REV_AT_EPOCH":"7185","COUNTRY_CODE":"US","TLE_LINE1":"1 48398U 21038AX  22224.84051295  .00007167  00000-0  49947-3 0  9999","ELEMENT_SET_NO":"999","REF_FRAME":"TEME","GP_ID":"210106522","TLE_LINE2":"2 48398  53.0540  79.3175 0001553  80.2254 279.8911 15.06405434 71858","LAUNCH_DATE":"2021-05-04","MEAN_MOTION_DOT":"0.00007167","CENTER_NAME":"EARTH","SEMIMAJOR_AXIS":"6925.332","PERIOD":"95.592","ARG_OF_PERICENTER":"80.2254","MEAN_ELEMENT_THEORY":"SGP4","OBJECT_TYPE":"PAYLOAD","TIME_SYSTEM":"UTC","BSTAR":"0.00049947000000","FILE":"3535519","OBJECT_NAME":"STARLINK-2588","MEAN_ANOMALY":"279.8911","PERIAPSIS":"546.121","MEAN_MOTION_DDOT":"0.0000000000000","INCLINATION":"53.0540","OBJECT_ID":"2021-038AX","DECAY_DATE":null,"APOAPSIS":"548.272"},{"ELEMENT_SET_NO":"999","TLE_LINE1":"1 48399U 21038AY  22224.83682843  .00005726  00000-0  40297-3 0  9996","REF_FRAME":"TEME","LAUNCH_DATE":"2021-05-04","MEAN_MOTION_DOT":"0.00005726","TLE_LINE2":"2 48399  53.0534  79.3365 0001373  77.3935 282.7208 15.06403749 71844","GP_ID":"210104770","CENTER_NAME":"EARTH","SEMIMAJOR_AXIS":"6925.337","PERIOD":"95.592","CLASSIFICATION_TYPE":"U","SITE":"AFETR","ECCENTRICITY":"0.00013730","EPHEMERIS_TYPE":"0","RCS_SIZE":"LARGE","EPOCH":"2022-08-12T20:05:01.976352","NORAD_CAT_ID":"48399","MEAN_MOTION":"15.06403749","COUNTRY_CODE":"US","REV_AT_EPOCH":"7184","RA_OF_ASC_NODE":"79.3365","PERIAPSIS":"546.251","MEAN_MOTION_DDOT":"0.0000000000000","INCLINATION":"53.0534","DECAY_DATE":null,"OBJECT_ID":"2021-038AY","APOAPSIS":"548.153","OBJECT_TYPE":"PAYLOAD","ARG_OF_PERICENTER":"77.3935","MEAN_ELEMENT_THEORY":"SGP4","BSTAR":"0.00040297000000","TIME_SYSTEM":"UTC","FILE":"3535519","OBJECT_NAME":"STARLINK-2587","MEAN_ANOMALY":"282.7208"},{"ARG_OF_PERICENTER":"72.7129","MEAN_ELEMENT_THEORY":"SGP4","OBJECT_TYPE":"PAYLOAD","TIME_SYSTEM":"UTC","BSTAR":"0.00014617000000","FILE":"3535519","MEAN_ANOMALY":"287.4019","OBJECT_NAME":"STARLINK-2576","MEAN_MOTION_DDOT":"0.0000000000000","PERIAPSIS":"546.200","INCLINATION":"53.0551","APOAPSIS":"548.216","OBJECT_ID":"2021-038AZ","DECAY_DATE":null,"ECCENTRICITY":"0.00014560","CLASSIFICATION_TYPE":"U","SITE":"AFETR","MEAN_MOTION":"15.06401812","NORAD_CAT_ID":"48400","EPHEMERIS_TYPE":"0","RCS_SIZE":"LARGE","EPOCH":"2022-08-12T19:59:42.774144","REV_AT_EPOCH":"7063","RA_OF_ASC_NODE":"79.3622","COUNTRY_CODE":"US","REF_FRAME":"TEME","TLE_LINE1":"1 48400U 21038AZ  22224.83313396  .00001896  00000-0  14617-3 0  9994","ELEMENT_SET_NO":"999","GP_ID":"210105020","TLE_LINE2":"2 48400  53.0551  79.3622 0001456  72.7129 287.4019 15.06401812 70635","LAUNCH_DATE":"2021-05-04","MEAN_MOTION_DOT":"0.00001896","SEMIMAJOR_AXIS":"6925.343","CENTER_NAME":"EARTH","PERIOD":"95.592"},{"ARG_OF_PERICENTER":"68.5194","MEAN_ELEMENT_THEORY":"SGP4","OBJECT_TYPE":"PAYLOAD","TIME_SYSTEM":"UTC","BSTAR":"0.00080016000000","FILE":"3535519","MEAN_ANOMALY":"291.5957","OBJECT_NAME":"STARLINK-2571","MEAN_MOTION_DDOT":"0.0000000000000","PERIAPSIS":"546.110","INCLINATION":"53.0536","APOAPSIS":"548.217","OBJECT_ID":"2021-038BA","DECAY_DATE":null,"ECCENTRICITY":"0.00015210","SITE":"AFETR","CLASSIFICATION_TYPE":"U","MEAN_MOTION":"15.06416300","NORAD_CAT_ID":"48401","RCS_SIZE":"LARGE","EPHEMERIS_TYPE":"0","EPOCH":"2022-08-12T19:17:16.019232","REV_AT_EPOCH":"7062","RA_OF_ASC_NODE":"79.4984","COUNTRY_CODE":"US","REF_FRAME":"TEME","TLE_LINE1":"1 48401U 21038BA  22224.80365763  .00011662  00000-0  80016-3 0  9995","ELEMENT_SET_NO":"999","GP_ID":"210106272","TLE_LINE2":"2 48401  53.0536  79.4984 0001521  68.5194 291.5957 15.06416300 70623","MEAN_MOTION_DOT":"0.00011662","LAUNCH_DATE":"2021-05-04","SEMIMAJOR_AXIS":"6925.299","CENTER_NAME":"EARTH","PERIOD":"95.591"},{"TIME_SYSTEM":"UTC","BSTAR":"0.00014342000000","MEAN_ELEMENT_THEORY":"SGP4","ARG_OF_PERICENTER":"75.8294","OBJECT_TYPE":"PAYLOAD","MEAN_ANOMALY":"284.2850","OBJECT_NAME":"STARLINK-2560","FILE":"3535519","MEAN_MOTION_DDOT":"0.0000000000000","PERIAPSIS":"546.249","APOAPSIS":"548.185","OBJECT_ID":"2021-038BB","DECAY_DATE":null,"INCLINATION":"53.0558","ECCENTRICITY":"0.00013980","SITE":"AFETR","CLASSIFICATION_TYPE":"U","REV_AT_EPOCH":"7063","RA_OF_ASC_NODE":"79.3647","COUNTRY_CODE":"US","MEAN_MOTION":"15.06398827","NORAD_CAT_ID":"48402","RCS_SIZE":"LARGE","EPOCH":"2022-08-12T19:53:02.922720","EPHEMERIS_TYPE":"0","TLE_LINE2":"2 48402  53.0558  79.3647 0001398  75.8294 284.2850 15.06398827 70632","GP_ID":"210106022","LAUNCH_DATE":"2021-05-04","MEAN_MOTION_DOT":"0.00001855","REF_FRAME":"TEME","TLE_LINE1":"1 48402U 21038BB  22224.82850605  .00001855  00000-0  14342-3 0  9994","ELEMENT_SET_NO":"999","PERIOD":"95.592","SEMIMAJOR_AXIS":"6925.352","CENTER_NAME":"EARTH"},{"PERIAPSIS":"546.222","MEAN_MOTION_DDOT":"0.0000000000000","OBJECT_ID":"2021-038BC","DECAY_DATE":null,"APOAPSIS":"548.214","INCLINATION":"53.0538","TIME_SYSTEM":"UTC","BSTAR":"0.00017539000000","ARG_OF_PERICENTER":"71.9732","MEAN_ELEMENT_THEORY":"SGP4","OBJECT_TYPE":"PAYLOAD","OBJECT_NAME":"STARLINK-2561","MEAN_ANOMALY":"288.1414","FILE":"3535519","TLE_LINE2":"2 48403  53.0538  79.3959 0001438  71.9732 288.1414 15.06398576 70636","GP_ID":"210105271","MEAN_MOTION_DOT":"0.00002332","LAUNCH_DATE":"2021-05-04","TLE_LINE1":"1 48403U 21038BC  22224.82576477  .00002332  00000-0  17539-3 0  9999","ELEMENT_SET_NO":"999","REF_FRAME":"TEME","PERIOD":"95.592","CENTER_NAME":"EARTH","SEMIMAJOR_AXIS":"6925.353","CLASSIFICATION_TYPE":"U","SITE":"AFETR","ECCENTRICITY":"0.00014380","RA_OF_ASC_NODE":"79.3959","REV_AT_EPOCH":"7063","COUNTRY_CODE":"US","RCS_SIZE":"LARGE","EPOCH":"2022-08-12T19:49:06.076128","EPHEMERIS_TYPE":"0","MEAN_MOTION":"15.06398576","NORAD_CAT_ID":"48403"},{"OBJECT_TYPE":"PAYLOAD","MEAN_ELEMENT_THEORY":"SGP4","ARG_OF_PERICENTER":"85.8560","BSTAR":"0.00013091000000","TIME_SYSTEM":"UTC","FILE":"3535519","OBJECT_NAME":"STARLINK-2593","MEAN_ANOMALY":"274.2601","PERIAPSIS":"546.171","MEAN_MOTION_DDOT":"0.0000000000000","INCLINATION":"53.0556","DECAY_DATE":null,"OBJECT_ID":"2021-038BD","APOAPSIS":"548.254","CLASSIFICATION_TYPE":"U","SITE":"AFETR","ECCENTRICITY":"0.00015040","EPOCH":"2022-08-12T19:43:47.519328","RCS_SIZE":"LARGE","EPHEMERIS_TYPE":"0","NORAD_CAT_ID":"48404","MEAN_MOTION":"15.06400313","COUNTRY_CODE":"US","REV_AT_EPOCH":"7063","RA_OF_ASC_NODE":"79.4122","ELEMENT_SET_NO":"999","TLE_LINE1":"1 48404U 21038BD  22224.82207777  .00001669  00000-0  13091-3 0  9995","REF_FRAME":"TEME","MEAN_MOTION_DOT":"0.00001669","LAUNCH_DATE":"2021-05-04","GP_ID":"210105521","TLE_LINE2":"2 48404  53.0556  79.4122 0001504  85.8560 274.2601 15.06400313 70634","CENTER_NAME":"EARTH","SEMIMAJOR_AXIS":"6925.348","PERIOD":"95.592"}];
